[
  {
    "OBJECT_NAME": "STARLINK-5056",
    "OBJECT_ID": "22119AA",
    "EPOCH": "2025-11-11T08:00:03.000384",
    "MEAN_MOTION": 15.81621248,
    "ECCENTRICITY": 0.0002251,
    "INCLINATION": 53.216,
    "RA_OF_ASC_NODE": 40.1684,
    "ARG_OF_PERICENTER": 28.3429,
    "MEAN_ANOMALY": 352.5092,
    "EPHEMERIS_TYPE": 0,
    "CLASSIFICATION_TYPE": "U",
    "NORAD_CAT_ID": 53910,
    "ELEMENT_SET_NO": 999,
    "REV_AT_EPOCH": 565,
    "BSTAR": 0.0009842800000000001,
    "MEAN_MOTION_DOT": 0.00205236,
    "MEAN_MOTION_DDOT": 0.0,
    "TLE_LINE1": "1 53910U 22119AA  25315.33336806  .00205236  00000+0  98428-3 0  9992",
    "TLE_LINE2": "2 53910  53.2160  40.1684 0002251  28.3429 352.5092 15.81621248  5658",
    "COMMENT": "Grouped by shell and plane from TLE"
  },
  {
    "OBJECT_NAME": "STARLINK-11209 [DTC]",
    "OBJECT_ID": "24171A",
    "EPOCH": "2025-11-11T05:58:15.020544",
    "MEAN_MOTION": 15.69702856,
    "ECCENTRICITY": 0.0001268,
    "INCLINATION": 53.1576,
    "RA_OF_ASC_NODE": 40.3317,
    "ARG_OF_PERICENTER": 73.7173,
    "MEAN_ANOMALY": 286.3984,
    "EPHEMERIS_TYPE": 0,
    "CLASSIFICATION_TYPE": "U",
    "NORAD_CAT_ID": 61200,
    "ELEMENT_SET_NO": 999,
    "REV_AT_EPOCH": 6670,
    "BSTAR": 7.727000000000001e-05,
    "MEAN_MOTION_DOT": 8.779e-05,
    "MEAN_MOTION_DDOT": 0.0,
    "TLE_LINE1": "1 61200U 24171A   25315.24878496  .00008779  00000+0  77270-4 0  9995",
    "TLE_LINE2": "2 61200  53.1576  40.3317 0001268  73.7173 286.3984 15.69702856 66709",
    "COMMENT": "Grouped by shell and plane from TLE"
  },
  {
    "OBJECT_NAME": "STARLINK-11257 [DTC]",
    "OBJECT_ID": "24171B",
    "EPOCH": "2025-11-11T05:51:10.323072",
    "MEAN_MOTION": 15.69720797,
    "ECCENTRICITY": 8.77e-05,
    "INCLINATION": 53.159,
    "RA_OF_ASC_NODE": 40.2944,
    "ARG_OF_PERICENTER": 55.1494,
    "MEAN_ANOMALY": 304.9606,
    "EPHEMERIS_TYPE": 0,
    "CLASSIFICATION_TYPE": "U",
    "NORAD_CAT_ID": 61201,
    "ELEMENT_SET_NO": 999,
    "REV_AT_EPOCH": 6579,
    "BSTAR": 4.019e-06,
    "MEAN_MOTION_DOT": -1.01e-06,
    "MEAN_MOTION_DDOT": 0.0,
    "TLE_LINE1": "1 61201U 24171B   25315.24386948 -.00000101  00000+0  40190-5 0  9996",
    "TLE_LINE2": "2 61201  53.1590  40.2944 0000877  55.1494 304.9606 15.69720797 65796",
    "COMMENT": "Grouped by shell and plane from TLE"
  },
  {
    "OBJECT_NAME": "STARLINK-11309 [DTC]",
    "OBJECT_ID": "24171C",
    "EPOCH": "2025-11-11T05:44:04.873920",
    "MEAN_MOTION": 15.69737363,
    "ECCENTRICITY": 0.0001101,
    "INCLINATION": 53.1613,
    "RA_OF_ASC_NODE": 40.2622,
    "ARG_OF_PERICENTER": 81.3863,
    "MEAN_ANOMALY": 278.7279,
    "EPHEMERIS_TYPE": 0,
    "CLASSIFICATION_TYPE": "U",
    "NORAD_CAT_ID": 61202,
    "ELEMENT_SET_NO": 999,
    "REV_AT_EPOCH": 6579,
    "BSTAR": 2.2707e-05,
    "MEAN_MOTION_DOT": 2.166e-05,
    "MEAN_MOTION_DDOT": 0.0,
    "TLE_LINE1": "1 61202U 24171C   25315.23894530  .00002166  00000+0  22707-4 0  9992",
    "TLE_LINE2": "2 61202  53.1613  40.2622 0001101  81.3863 278.7279 15.69737363 65799",
    "COMMENT": "Grouped by shell and plane from TLE"
  },
  {
    "OBJECT_NAME": "STARLINK-11292 [DTC]",
    "OBJECT_ID": "24171D",
    "EPOCH": "2025-11-10T15:51:53.038656",
    "MEAN_MOTION": 15.69726084,
    "ECCENTRICITY": 8.81e-05,
    "INCLINATION": 53.1587,
    "RA_OF_ASC_NODE": 43.053,
    "ARG_OF_PERICENTER": 92.9607,
    "MEAN_ANOMALY": 267.1511,
    "EPHEMERIS_TYPE": 0,
    "CLASSIFICATION_TYPE": "U",
    "NORAD_CAT_ID": 61203,
    "ELEMENT_SET_NO": 999,
    "REV_AT_EPOCH": 6570,
    "BSTAR": 1.0707000000000001e-05,
    "MEAN_MOTION_DOT": 7.1e-06,
    "MEAN_MOTION_DDOT": 0.0,
    "TLE_LINE1": "1 61203U 24171D   25314.66103054  .00000710  00000+0  10707-4 0  9993",
    "TLE_LINE2": "2 61203  53.1587  43.0530 0000881  92.9607 267.1511 15.69726084 65707",
    "COMMENT": "Grouped by shell and plane from TLE"
  },
  {
    "OBJECT_NAME": "STARLINK-11302 [DTC]",
    "OBJECT_ID": "24171E",
    "EPOCH": "2025-11-11T05:29:59.326368",
    "MEAN_MOTION": 15.69714621,
    "ECCENTRICITY": 0.0001123,
    "INCLINATION": 53.1586,
    "RA_OF_ASC_NODE": 40.194,
    "ARG_OF_PERICENTER": 98.1562,
    "MEAN_ANOMALY": 261.9584,
    "EPHEMERIS_TYPE": 0,
    "CLASSIFICATION_TYPE": "U",
    "NORAD_CAT_ID": 61204,
    "ELEMENT_SET_NO": 999,
    "REV_AT_EPOCH": 6579,
    "BSTAR": 2.9172e-06,
    "MEAN_MOTION_DOT": -2.35e-06,
    "MEAN_MOTION_DDOT": 0.0,
    "TLE_LINE1": "1 61204U 24171E   25315.22915887 -.00000235  00000+0  29172-5 0  9992",
    "TLE_LINE2": "2 61204  53.1586  40.1940 0001123  98.1562 261.9584 15.69714621 65793",
    "COMMENT": "Grouped by shell and plane from TLE"
  },
  {
    "OBJECT_NAME": "STARLINK-11279 [DTC]",
    "OBJECT_ID": "24171G",
    "EPOCH": "2025-11-11T05:08:47.447520",
    "MEAN_MOTION": 15.6971533,
    "ECCENTRICITY": 9.35e-05,
    "INCLINATION": 53.1588,
    "RA_OF_ASC_NODE": 40.0961,
    "ARG_OF_PERICENTER": 80.6435,
    "MEAN_ANOMALY": 279.4688,
    "EPHEMERIS_TYPE": 0,
    "CLASSIFICATION_TYPE": "U",
    "NORAD_CAT_ID": 61206,
    "ELEMENT_SET_NO": 999,
    "REV_AT_EPOCH": 6579,
    "BSTAR": 9.776200000000001e-06,
    "MEAN_MOTION_DOT": 5.96e-06,
    "MEAN_MOTION_DDOT": 0.0,
    "TLE_LINE1": "1 61206U 24171G   25315.21443805  .00000596  00000+0  97762-5 0  9998",
    "TLE_LINE2": "2 61206  53.1588  40.0961 0000935  80.6435 279.4688 15.69715330 65791",
    "COMMENT": "Grouped by shell and plane from TLE"
  },
  {
    "OBJECT_NAME": "STARLINK-11291 [DTC]",
    "OBJECT_ID": "24171J",
    "EPOCH": "2025-11-11T05:01:43.753152",
    "MEAN_MOTION": 15.69706391,
    "ECCENTRICITY": 0.0001455,
    "INCLINATION": 53.1601,
    "RA_OF_ASC_NODE": 40.0666,
    "ARG_OF_PERICENTER": 37.51,
    "MEAN_ANOMALY": 322.6019,
    "EPHEMERIS_TYPE": 0,
    "CLASSIFICATION_TYPE": "U",
    "NORAD_CAT_ID": 61208,
    "ELEMENT_SET_NO": 999,
    "REV_AT_EPOCH": 6579,
    "BSTAR": 2.418e-05,
    "MEAN_MOTION_DOT": 2.341e-05,
    "MEAN_MOTION_DDOT": 0.0,
    "TLE_LINE1": "1 61208U 24171J   25315.20953418  .00002341  00000+0  24180-4 0  9998",
    "TLE_LINE2": "2 61208  53.1601  40.0666 0001455  37.5100 322.6019 15.69706391 65795",
    "COMMENT": "Grouped by shell and plane from TLE"
  },
  {
    "OBJECT_NAME": "STARLINK-11307 [DTC]",
    "OBJECT_ID": "24171L",
    "EPOCH": "2025-11-11T06:19:25.739040",
    "MEAN_MOTION": 15.69704697,
    "ECCENTRICITY": 9.88e-05,
    "INCLINATION": 53.1588,
    "RA_OF_ASC_NODE": 40.4172,
    "ARG_OF_PERICENTER": 48.9787,
    "MEAN_ANOMALY": 311.1316,
    "EPHEMERIS_TYPE": 0,
    "CLASSIFICATION_TYPE": "U",
    "NORAD_CAT_ID": 61210,
    "ELEMENT_SET_NO": 999,
    "REV_AT_EPOCH": 6579,
    "BSTAR": 3.56e-05,
    "MEAN_MOTION_DOT": 3.725e-05,
    "MEAN_MOTION_DDOT": 0.0,
    "TLE_LINE1": "1 61210U 24171L   25315.26349235  .00003725  00000+0  35600-4 0  9999",
    "TLE_LINE2": "2 61210  53.1588  40.4172 0000988  48.9787 311.1316 15.69704697 65795",
    "COMMENT": "Grouped by shell and plane from TLE"
  },
  {
    "OBJECT_NAME": "STARLINK-11298 [DTC]",
    "OBJECT_ID": "24171M",
    "EPOCH": "2025-11-11T06:12:21.960000",
    "MEAN_MOTION": 15.69719272,
    "ECCENTRICITY": 0.0001295,
    "INCLINATION": 53.1604,
    "RA_OF_ASC_NODE": 40.3868,
    "ARG_OF_PERICENTER": 87.906,
    "MEAN_ANOMALY": 272.2107,
    "EPHEMERIS_TYPE": 0,
    "CLASSIFICATION_TYPE": "U",
    "NORAD_CAT_ID": 61211,
    "ELEMENT_SET_NO": 999,
    "REV_AT_EPOCH": 6579,
    "BSTAR": 4.3351e-06,
    "MEAN_MOTION_DOT": -6.4e-07,
    "MEAN_MOTION_DDOT": 0.0,
    "TLE_LINE1": "1 61211U 24171M   25315.25858750 -.00000064  00000+0  43351-5 0  9993",
    "TLE_LINE2": "2 61211  53.1604  40.3868 0001295  87.9060 272.2107 15.69719272 65795",
    "COMMENT": "Grouped by shell and plane from TLE"
  },
  {
    "OBJECT_NAME": "STARLINK-11310 [DTC]",
    "OBJECT_ID": "24171N",
    "EPOCH": "2025-11-11T06:05:18.168864",
    "MEAN_MOTION": 15.69702686,
    "ECCENTRICITY": 0.0001192,
    "INCLINATION": 53.1579,
    "RA_OF_ASC_NODE": 40.3501,
    "ARG_OF_PERICENTER": 122.3602,
    "MEAN_ANOMALY": 237.7532,
    "EPHEMERIS_TYPE": 0,
    "CLASSIFICATION_TYPE": "U",
    "NORAD_CAT_ID": 61212,
    "ELEMENT_SET_NO": 999,
    "REV_AT_EPOCH": 6579,
    "BSTAR": 2.0594000000000003e-05,
    "MEAN_MOTION_DOT": 1.906e-05,
    "MEAN_MOTION_DDOT": 0.0,
    "TLE_LINE1": "1 61212U 24171N   25315.25368251  .00001906  00000+0  20594-4 0  9994",
    "TLE_LINE2": "2 61212  53.1579  40.3501 0001192 122.3602 237.7532 15.69702686 65792",
    "COMMENT": "Grouped by shell and plane from TLE"
  }
]